{
    "links": {
        "self": "http://www.neowsapp.com/rest/v1/neo/3692750?api_key=iIulBulltgU6a56xZRHN4H3l9WmuAYTsLGpBGhQ2"
    },
    "id": "3692750",
    "neo_reference_id": "3692750",
    "name": "(2014 TM17)",
    "designation": "2014 TM17",
    "nasa_jpl_url": "http://ssd.jpl.nasa.gov/sbdb.cgi?sstr=3692750",
    "absolute_magnitude_h": 20.7,
    "estimated_diameter": {
        "kilometers": {
            "estimated_diameter_min": 0.1925550782,
            "estimated_diameter_max": 0.4305662442
        },
        "meters": {
            "estimated_diameter_min": 192.5550781879,
            "estimated_diameter_max": 430.566244241
        },
        "miles": {
            "estimated_diameter_min": 0.1196481415,
            "estimated_diameter_max": 0.2675413778
        },
        "feet": {
            "estimated_diameter_min": 631.7424027221,
            "estimated_diameter_max": 1412.6189567557
        }
    },
    "is_potentially_hazardous_asteroid": false,
    "close_approach_data": [
        {
            "close_approach_date": "2010-02-26",
            "close_approach_date_full": "2010-Feb-26 14:49",
            "epoch_date_close_approach": 1267195740000,
            "relative_velocity": {
                "kilometers_per_second": "36.1051823805",
                "kilometers_per_hour": "129978.6565697154",
                "miles_per_hour": "80763.6824668879"
            },
            "miss_distance": {
                "astronomical": "0.4019557716",
                "lunar": "156.3607951524",
                "kilometers": "60131727.265566492",
                "miles": "37364122.7254299096"
            },
            "orbiting_body": "Earth"
        },
        {
            "close_approach_date": "2014-09-18",
            "close_approach_date_full": "2014-Sep-18 14:25",
            "epoch_date_close_approach": 1411050300000,
            "relative_velocity": {
                "kilometers_per_second": "21.4794795543",
                "kilometers_per_hour": "77326.126395368",
                "miles_per_hour": "48047.4478149441"
            },
            "miss_distance": {
                "astronomical": "0.4480785501",
                "lunar": "174.3025559889",
                "kilometers": "67031596.687648287",
                "miles": "41651502.7758568806"
            },
            "orbiting_body": "Earth"
        },
        {
            "close_approach_date": "2016-10-15",
            "close_approach_date_full": "2016-Oct-15 19:18",
            "epoch_date_close_approach": 1476559080000,
            "relative_velocity": {
                "kilometers_per_second": "41.2457082328",
                "kilometers_per_hour": "148484.549638039",
                "miles_per_hour": "92262.5247459248"
            },
            "miss_distance": {
                "astronomical": "0.43122099",
                "lunar": "167.74496511",
                "kilometers": "64509741.6032913",
                "miles": "40084494.68956794"
            },
            "orbiting_body": "Earth"
        },
        {
            "close_approach_date": "2023-01-29",
            "close_approach_date_full": "2023-Jan-29 17:46",
            "epoch_date_close_approach": 1675014360000,
            "relative_velocity": {
                "kilometers_per_second": "43.2421442244",
                "kilometers_per_hour": "155671.71920775",
                "miles_per_hour": "96728.3524155044"
            },
            "miss_distance": {
                "astronomical": "0.0969963812",
                "lunar": "37.7315922868",
                "kilometers": "14510452.025228044",
                "miles": "9016376.7935292472"
            },
            "orbiting_body": "Merc"
        }
    ],
    "orbital_data": {
        "orbit_id": "5",
        "orbit_determination_date": "2017-04-06 08:38:13",
        "first_observation_date": "2014-10-02",
        "last_observation_date": "2014-10-20",
        "data_arc_in_days": 18,
        "observations_used": 24,
        "orbit_uncertainty": "7",
        "minimum_orbit_intersection": ".123879",
        "jupiter_tisserand_invariant": "3.728",
        "epoch_osculation": "2459000.5",
        "eccentricity": ".732638170761448",
        "semi_major_axis": "1.663485909260219",
        "inclination": "38.75518495473755",
        "ascending_node_longitude": "193.3210219751913",
        "orbital_period": "783.658983654047",
        "perihelion_distance": ".444752635612368",
        "perihelion_argument": "58.39359853631421",
        "aphelion_distance": "2.882219182908069",
        "perihelion_time": "2459201.801314993693",
        "mean_anomaly": "267.5254990891276",
        "mean_motion": ".4593834914281096",
        "equinox": "J2000",
        "orbit_class": {
            "orbit_class_type": "APO",
            "orbit_class_description": "Near-Earth asteroid orbits which cross the Earth’s orbit similar to that of 1862 Apollo",
            "orbit_class_range": "a (semi-major axis) > 1.0 AU; q (perihelion) < 1.017 AU"
        }
    },
    "is_sentry_object": false
}